start=new Date('2021-09-02T00:00:00.000Z').valueOf();
sats=[{"APOAPSIS":"351.740","SEMIMAJOR_AXIS":"6727.623","ECCENTRICITY":"0.00033480","EPOCH":"2021-09-01T20:25:13.208448","OBJECT_TYPE":"PAYLOAD","PERIOD":"91.528","MEAN_MOTION":"15.73295486","MEAN_MOTION_DDOT":"0.0000000000000","OBJECT_NAME":"STARLINK-2307","SITE":"AFETR","CENTER_NAME":"EARTH","ELEMENT_SET_NO":"999","REV_AT_EPOCH":"2668","RCS_SIZE":"LARGE","TLE_LINE2":"2 47990  53.0450 121.8990 0003348  18.9289 341.1852 15.73295486 26689","ARG_OF_PERICENTER":"18.9289","CLASSIFICATION_TYPE":"U","INCLINATION":"53.0450","TLE_LINE1":"1 47990U 21024P   21244.85084732  .00031472  00000-0  22682-3 0  9998","TIME_SYSTEM":"UTC","DECAY_DATE":null,"EPHEMERIS_TYPE":"0","NORAD_CAT_ID":"47990","OBJECT_ID":"2021-024P","PERIAPSIS":"347.236","MEAN_ANOMALY":"341.1852","RA_OF_ASC_NODE":"121.8990","LAUNCH_DATE":"2021-03-24","FILE":"3107096","REF_FRAME":"TEME","MEAN_MOTION_DOT":"0.00031472","MEAN_ELEMENT_THEORY":"SGP4","COUNTRY_CODE":"US","GP_ID":"183926947","BSTAR":"0.00022682000000"},{"SEMIMAJOR_AXIS":"6727.781","APOAPSIS":"351.254","PERIOD":"91.531","OBJECT_TYPE":"PAYLOAD","EPOCH":"2021-09-01T20:25:02.898336","ECCENTRICITY":"0.00023910","OBJECT_NAME":"STARLINK-2279","MEAN_MOTION_DDOT":"0.0000000000000","REV_AT_EPOCH":"2674","ELEMENT_SET_NO":"999","SITE":"AFETR","CENTER_NAME":"EARTH","MEAN_MOTION":"15.73240145","ARG_OF_PERICENTER":"20.0944","TLE_LINE2":"2 47991  53.0448 121.8971 0002391  20.0944 340.0168 15.73240145 26742","TIME_SYSTEM":"UTC","TLE_LINE1":"1 47991U 21024Q   21244.85072799  .00011171  00000-0  83752-4 0  9999","INCLINATION":"53.0448","CLASSIFICATION_TYPE":"U","RCS_SIZE":"LARGE","OBJECT_ID":"2021-024Q","NORAD_CAT_ID":"47991","EPHEMERIS_TYPE":"0","DECAY_DATE":null,"MEAN_ANOMALY":"340.0168","RA_OF_ASC_NODE":"121.8971","PERIAPSIS":"348.037","REF_FRAME":"TEME","FILE":"3107096","MEAN_MOTION_DOT":"0.00011171","LAUNCH_DATE":"2021-03-24","GP_ID":"183926697","BSTAR":"0.00008375200000","COUNTRY_CODE":"US","MEAN_ELEMENT_THEORY":"SGP4"},{"SITE":"AFETR","CENTER_NAME":"EARTH","REV_AT_EPOCH":"2669","ELEMENT_SET_NO":"999","MEAN_MOTION_DDOT":"0.0000000000000","OBJECT_NAME":"STARLINK-2229","MEAN_MOTION":"15.73188893","CLASSIFICATION_TYPE":"U","INCLINATION":"53.0459","TIME_SYSTEM":"UTC","TLE_LINE1":"1 47992U 21024R   21244.85062224  .00067622  00000-0  48246-3 0  9992","TLE_LINE2":"2 47992  53.0459 121.8999 0002459  18.0458 342.0646 15.73188893 26695","ARG_OF_PERICENTER":"18.0458","RCS_SIZE":"LARGE","SEMIMAJOR_AXIS":"6727.927","APOAPSIS":"351.446","OBJECT_TYPE":"PAYLOAD","PERIOD":"91.534","ECCENTRICITY":"0.00024590","EPOCH":"2021-09-01T20:24:53.761536","MEAN_MOTION_DOT":"0.00067622","FILE":"3107096","REF_FRAME":"TEME","LAUNCH_DATE":"2021-03-24","BSTAR":"0.00048246000000","GP_ID":"183927446","MEAN_ELEMENT_THEORY":"SGP4","COUNTRY_CODE":"US","NORAD_CAT_ID":"47992","OBJECT_ID":"2021-024R","DECAY_DATE":null,"EPHEMERIS_TYPE":"0","RA_OF_ASC_NODE":"121.8999","MEAN_ANOMALY":"342.0646","PERIAPSIS":"348.137"},{"DECAY_DATE":null,"EPHEMERIS_TYPE":"0","NORAD_CAT_ID":"47993","OBJECT_ID":"2021-024S","PERIAPSIS":"545.747","RA_OF_ASC_NODE":"142.8940","MEAN_ANOMALY":"279.1963","LAUNCH_DATE":"2021-03-24","MEAN_MOTION_DOT":"0.00001081","FILE":"3107096","REF_FRAME":"TEME","MEAN_ELEMENT_THEORY":"SGP4","COUNTRY_CODE":"US","BSTAR":"0.00009151800000","GP_ID":"183928199","APOAPSIS":"548.741","SEMIMAJOR_AXIS":"6925.379","ECCENTRICITY":"0.00021620","EPOCH":"2021-09-01T21:06:24.277824","OBJECT_TYPE":"PAYLOAD","PERIOD":"95.593","MEAN_MOTION":"15.06390056","CENTER_NAME":"EARTH","SITE":"AFETR","ELEMENT_SET_NO":"999","REV_AT_EPOCH":"2645","MEAN_MOTION_DDOT":"0.0000000000000","OBJECT_NAME":"STARLINK-2273","RCS_SIZE":"LARGE","INCLINATION":"53.0557","CLASSIFICATION_TYPE":"U","TLE_LINE1":"1 47993U 21024S   21244.87944766  .00001081  00000-0  91518-4 0  9993","TIME_SYSTEM":"UTC","TLE_LINE2":"2 47993  53.0557 142.8940 0002162  80.9270 279.1963 15.06390056 26453","ARG_OF_PERICENTER":"80.9270"},{"MEAN_ANOMALY":"295.4585","RA_OF_ASC_NODE":"157.6658","PERIAPSIS":"553.318","OBJECT_ID":"2021-024T","NORAD_CAT_ID":"47994","EPHEMERIS_TYPE":"0","DECAY_DATE":null,"GP_ID":"183926448","BSTAR":"0.00003879500000","COUNTRY_CODE":"US","MEAN_ELEMENT_THEORY":"SGP4","REF_FRAME":"TEME","FILE":"3107096","MEAN_MOTION_DOT":"0.00000266","LAUNCH_DATE":"2021-03-24","OBJECT_TYPE":"PAYLOAD","PERIOD":"95.748","EPOCH":"2021-09-01T20:21:38.564928","ECCENTRICITY":"0.00020300","SEMIMAJOR_AXIS":"6932.860","APOAPSIS":"556.133","ARG_OF_PERICENTER":"64.6613","TLE_LINE2":"2 47994  53.0550 157.6658 0002030  64.6613 295.4585 15.03952412 26189","TIME_SYSTEM":"UTC","TLE_LINE1":"1 47994U 21024T   21244.84836302  .00000266  00000-0  38795-4 0  9999","INCLINATION":"53.0550","CLASSIFICATION_TYPE":"U","RCS_SIZE":"LARGE","OBJECT_NAME":"STARLINK-2290","MEAN_MOTION_DDOT":"0.0000000000000","REV_AT_EPOCH":"2618","ELEMENT_SET_NO":"999","SITE":"AFETR","CENTER_NAME":"EARTH","MEAN_MOTION":"15.03952412"},{"MEAN_ANOMALY":"327.8118","RA_OF_ASC_NODE":"124.1523","PERIAPSIS":"443.373","NORAD_CAT_ID":"47995","OBJECT_ID":"2021-024U","DECAY_DATE":null,"EPHEMERIS_TYPE":"0","GP_ID":"183927197","BSTAR":"-0.00519870000000","MEAN_ELEMENT_THEORY":"SGP4","COUNTRY_CODE":"US","FILE":"3107096","REF_FRAME":"TEME","MEAN_MOTION_DOT":"-0.00204553","LAUNCH_DATE":"2021-03-24","OBJECT_TYPE":"PAYLOAD","PERIOD":"93.515","ECCENTRICITY":"0.00046530","EPOCH":"2021-09-01T20:36:27.817056","SEMIMAJOR_AXIS":"6824.683","APOAPSIS":"449.724","TLE_LINE2":"2 47995  53.0473 124.1523 0004653  32.3170 327.8118 15.39852110 26665","ARG_OF_PERICENTER":"32.3170","INCLINATION":"53.0473","CLASSIFICATION_TYPE":"U","TIME_SYSTEM":"UTC","TLE_LINE1":"1 47995U 21024U   21244.85865529 -.00204553  00000-0 -51987-2 0  9997","RCS_SIZE":"LARGE","MEAN_MOTION_DDOT":"0.0000000000000","OBJECT_NAME":"STARLINK-2309","SITE":"AFETR","CENTER_NAME":"EARTH","REV_AT_EPOCH":"2666","ELEMENT_SET_NO":"999","MEAN_MOTION":"15.39852110"},{"RA_OF_ASC_NODE":"121.8983","MEAN_ANOMALY":"1.4959","PERIAPSIS":"347.196","OBJECT_ID":"2021-024V","NORAD_CAT_ID":"47996","EPHEMERIS_TYPE":"0","DECAY_DATE":null,"BSTAR":"-0.00008143700000","GP_ID":"183927946","COUNTRY_CODE":"US","MEAN_ELEMENT_THEORY":"SGP4","MEAN_MOTION_DOT":"-0.00012052","REF_FRAME":"TEME","FILE":"3107096","LAUNCH_DATE":"2021-03-24","OBJECT_TYPE":"PAYLOAD","PERIOD":"91.532","EPOCH":"2021-09-01T20:24:14.599008","ECCENTRICITY":"0.00037480","SEMIMAJOR_AXIS":"6727.853","APOAPSIS":"352.239","TIME_SYSTEM":"UTC","TLE_LINE1":"1 47996U 21024V   21244.85016897 -.00012052  00000-0 -81437-4 0  9990","CLASSIFICATION_TYPE":"U","INCLINATION":"53.0455","ARG_OF_PERICENTER":"358.6048","TLE_LINE2":"2 47996  53.0455 121.8983 0003748 358.6048   1.4959 15.73214878 26740","RCS_SIZE":"LARGE","REV_AT_EPOCH":"2674","ELEMENT_SET_NO":"999","CENTER_NAME":"EARTH","SITE":"AFETR","OBJECT_NAME":"STARLINK-2260","MEAN_MOTION_DDOT":"0.0000000000000","MEAN_MOTION":"15.73214878"},{"APOAPSIS":"548.451","SEMIMAJOR_AXIS":"6925.382","EPOCH":"2021-09-01T06:25:58.374336","ECCENTRICITY":"0.00017380","OBJECT_TYPE":"PAYLOAD","PERIOD":"95.593","MEAN_MOTION":"15.06388974","OBJECT_NAME":"STARLINK-2266","MEAN_MOTION_DDOT":"0.0000000000000","ELEMENT_SET_NO":"999","REV_AT_EPOCH":"2615","CENTER_NAME":"EARTH","SITE":"AFETR","RCS_SIZE":"LARGE","ARG_OF_PERICENTER":"61.4941","TLE_LINE2":"2 47997  53.0569 160.6335 0001738  61.4941 298.6223 15.06388974 26151","TIME_SYSTEM":"UTC","TLE_LINE1":"1 47997U 21024W   21244.26803674  .00001607  00000-0  12681-3 0  9999","INCLINATION":"53.0569","CLASSIFICATION_TYPE":"U","EPHEMERIS_TYPE":"0","DECAY_DATE":null,"OBJECT_ID":"2021-024W","NORAD_CAT_ID":"47997","PERIAPSIS":"546.044","MEAN_ANOMALY":"298.6223","RA_OF_ASC_NODE":"160.6335","LAUNCH_DATE":"2021-03-24","REF_FRAME":"TEME","FILE":"3106942","MEAN_MOTION_DOT":"0.00001607","COUNTRY_CODE":"US","MEAN_ELEMENT_THEORY":"SGP4","GP_ID":"183878166","BSTAR":"0.00012681000000"},{"EPOCH":"2021-09-01T20:23:53.347200","ECCENTRICITY":"0.00014490","PERIOD":"95.592","OBJECT_TYPE":"PAYLOAD","APOAPSIS":"548.223","SEMIMAJOR_AXIS":"6925.354","RCS_SIZE":"LARGE","ARG_OF_PERICENTER":"87.6291","TLE_LINE2":"2 47998  53.0452 133.0735 0001449  87.6291 272.4863 15.06398200 26533","TLE_LINE1":"1 47998U 21024X   21244.84992300  .00001278  00000-0  10465-3 0  9991","TIME_SYSTEM":"UTC","INCLINATION":"53.0452","CLASSIFICATION_TYPE":"U","MEAN_MOTION":"15.06398200","OBJECT_NAME":"STARLINK-2296","MEAN_MOTION_DDOT":"0.0000000000000","REV_AT_EPOCH":"2653","ELEMENT_SET_NO":"999","CENTER_NAME":"EARTH","SITE":"AFETR","PERIAPSIS":"546.216","MEAN_ANOMALY":"272.4863","RA_OF_ASC_NODE":"133.0735","EPHEMERIS_TYPE":"0","DECAY_DATE":null,"OBJECT_ID":"2021-024X","NORAD_CAT_ID":"47998","COUNTRY_CODE":"US","MEAN_ELEMENT_THEORY":"SGP4","GP_ID":"183926948","BSTAR":"0.00010465000000","LAUNCH_DATE":"2021-03-24","REF_FRAME":"TEME","FILE":"3107096","MEAN_MOTION_DOT":"0.00001278"},{"SEMIMAJOR_AXIS":"6727.786","APOAPSIS":"352.095","PERIOD":"91.531","OBJECT_TYPE":"PAYLOAD","EPOCH":"2021-09-01T20:23:45.796704","ECCENTRICITY":"0.00036330","ELEMENT_SET_NO":"999","REV_AT_EPOCH":"2668","SITE":"AFETR","CENTER_NAME":"EARTH","OBJECT_NAME":"STARLINK-2218","MEAN_MOTION_DDOT":"0.0000000000000","MEAN_MOTION":"15.73238248","TLE_LINE1":"1 47999U 21024Y   21244.84983561  .00044302  00000-0  31776-3 0  9994","TIME_SYSTEM":"UTC","INCLINATION":"53.0454","CLASSIFICATION_TYPE":"U","ARG_OF_PERICENTER":"7.6404","TLE_LINE2":"2 47999  53.0454 121.8925 0003633   7.6404 352.4669 15.73238248 26685","RCS_SIZE":"LARGE","OBJECT_ID":"2021-024Y","NORAD_CAT_ID":"47999","EPHEMERIS_TYPE":"0","DECAY_DATE":null,"RA_OF_ASC_NODE":"121.8925","MEAN_ANOMALY":"352.4669","PERIAPSIS":"347.207","MEAN_MOTION_DOT":"0.00044302","REF_FRAME":"TEME","FILE":"3107096","LAUNCH_DATE":"2021-03-24","BSTAR":"0.00031776000000","GP_ID":"183926698","COUNTRY_CODE":"US","MEAN_ELEMENT_THEORY":"SGP4"}];
